GLOBALSTAR M075         
1 37192U 10054E   24357.36226630 -.00000085  00000+0  10723-3 0  9990
2 37192  51.9966 359.9296 0000339  70.3417  65.6554 12.62270349653517
GLOBALSTAR M073         
1 37193U 10054F   24357.12465339 -.00000063  00000+0  22478-3 0  9992
2 37193  52.0066 274.3371 0000701  50.1497  85.7071 12.62261300655473
GLOBALSTAR M083         
1 37739U 11033A   24357.59125233 -.00000090  00000+0  74275-4 0  9996
2 37739  51.9838 221.8903 0000881  85.4687 311.5465 12.62269737624557
GLOBALSTAR M088         
1 37740U 11033B   24357.57450406 -.00000091  00000+0  70266-4 0  9996
2 37740  51.9719 127.5781 0000928 117.7268 323.6590 12.62266603620096
GLOBALSTAR M091         
1 37741U 11033C   24357.42883112 -.00000089  00000+0  82904-4 0  9994
2 37741  52.0002  91.2627 0000879 140.6094 297.5176 12.62271907620864
GLOBALSTAR M085         
1 37742U 11033D   24357.59131097 -.00000131  00000+0 -15446-3 0  9996
2 37742  51.9887  41.9617 0000465 150.2400   7.5628 12.62262852621393
GLOBALSTAR M081         
1 37743U 11033E   24357.52452852 -.00000088  00000+0  89695-4 0  9993
2 37743  51.9976  44.8426 0000260 170.8249 283.7827 12.62274331621535
GLOBALSTAR M089         
1 37744U 11033F   24357.41771133 -.00000082  00000+0  12374-3 0  9991
2 37744  51.9951 359.4308 0000415  33.5734 114.4447 12.62273780622366
